ONEWEB-0555             
1 56057U 23043M   24339.48964709 -.00000044  00000+0 -14973-3 0  9999
2 56057  87.9078 340.2807 0002219 105.9678 254.1697 13.16591499 86228
ONEWEB-0557             
1 56058U 23043N   24339.04793188 -.00000019  00000+0 -82604-4 0  9992
2 56058  87.9077 340.3935 0002701 101.4871 258.6563 13.16592516 86168
ONEWEB-0558             
1 56059U 23043P   24339.06213235  .00000063  00000+0  12047-3 0  9995
2 56059  87.9300 355.5705 0001295  82.7900 277.3381 13.21826145 85150
ONEWEB-0559             
1 56060U 23043Q   24339.05108738  .00000070  00000+0  13782-3 0  9992
2 56060  87.9296 355.5681 0001833  76.5463 283.5875 13.21826968 85163
ONEWEB-0566             
1 56061U 23043R   24338.81769082 -.00000009  00000+0 -53401-4 0  9998
2 56061  87.9296 355.6142 0001375  76.4355 283.6932 13.21826013 84207
ONEWEB-0568             
1 56062U 23043S   24338.76134363  .00000044  00000+0  81462-4 0  9996
2 56062  87.9078 340.4156 0001865  97.8899 262.2444 13.16591846 85239
ONEWEB-0574             
1 56063U 23043T   24338.81136356 -.00000042  00000+0 -13330-3 0  9995
2 56063  87.9293 355.6070 0001740  97.0735 263.0597 13.21825551 84242
ONEWEB-0575             
1 56064U 23043U   24339.05901901  .00000011  00000+0 -50663-5 0  9996
2 56064  87.9077 340.3674 0002280  93.1827 266.9564 13.16593345 86170
ONEWEB-0576             
1 56065U 23043V   24339.04000891 -.00000051  00000+0 -16791-3 0  9991
2 56065  87.9077 340.3649 0002017  96.6022 263.5339 13.16594496 86166
ONEWEB-0577             
1 56066U 23043W   24339.04634956 -.00000016  00000+0 -76595-4 0  9997
2 56066  87.9076 340.3634 0002555  91.2563 268.8861 13.16592851 86192
ONEWEB-0578             
1 56067U 23043X   24339.10154946  .00000070  00000+0  13736-3 0  9996
2 56067  87.9298 355.5535 0001870  96.3798 263.7549 13.21828463 85151
ONEWEB-0579             
1 56068U 23043Y   24339.31917728  .00000034  00000+0  49820-4 0  9999
2 56068  87.9297 355.5025 0001805  80.1993 279.9345 13.21825617 85196
ONEWEB-0581             
1 56069U 23043Z   24339.05268578 -.00000053  00000+0 -17133-3 0  9997
2 56069  87.9078 340.3924 0002271  82.6251 277.5137 13.16593742 86162
ONEWEB-0609             
1 56070U 23043AA  24338.79336518  .00000130  00000+0  31251-3 0  9990
2 56070  87.9076  10.7831 0001699  95.4373 264.6951 13.15548317 82756
ONEWEB-0613             
1 56071U 23043AB  24338.78862407  .00000196  00000+0  48740-3 0  9994
2 56071  87.9081  10.7868 0001621  84.7486 275.3829 13.15549960 82752
ONEWEB-0630             
1 56072U 23043AC  24339.46838482 -.00000120  00000+0 -35260-3 0  9999
2 56072  87.9080  10.6365 0001507  86.9488 273.1815 13.15545954 83742
ONEWEB-0632             
1 56073U 23043AD  24338.62700364  .00000238  00000+0  59946-3 0  9999
2 56073  87.9078  10.8230 0002062  90.0782 270.0585 13.15548263 82726
ONEWEB-0633             
1 56074U 23043AE  24338.62063949  .00000136  00000+0  32783-3 0  9998
2 56074  87.9072  10.7996 0001320  86.8573 273.2708 13.15550738 82706
ONEWEB-0634             
1 56075U 23043AF  24339.13879320 -.00000035  00000+0 -12709-3 0  9990
2 56075  87.9079  10.7186 0001559 104.4937 255.6366 13.15547410 83674
ONEWEB-0635             
1 56076U 23043AG  24338.82982127 -.00000040  00000+0 -14099-3 0  9996
2 56076  87.9048  10.8193 0002126  90.6070 269.5304 13.15548631 82755
ONEWEB-0636             
1 56077U 23043AH  24338.82189583 -.00000060  00000+0 -19437-3 0  9995
2 56077  87.9074  10.8026 0002056  90.5424 269.5942 13.15548548 82737
ONEWEB-0637             
1 56078U 23043AJ  24338.81553603 -.00000107  00000+0 -31705-3 0  9997
2 56078  87.9082  10.7826 0002247  90.8608 269.2780 13.15547456 82759
ONEWEB-0647             
1 56079U 23043AK  24338.81079957 -.00000033  00000+0 -12054-3 0  9997
2 56079  87.9075  10.7983 0001831  88.1971 271.9369 13.15547137 82745
ONEWEB-0651             
1 56080U 23043AL  24339.49056174  .00000031  00000+0  49279-4 0  9996
2 56080  87.9081  10.6450 0002147  94.7143 265.4232 13.15547743 82837
ONEWEB-0718             
1 56081U 23043AM  24339.48578897  .00000039  00000+0  69235-4 0  9999
2 56081  87.9080  10.6309 0001577 111.9203 248.2095 13.15550636 83758
ONEWEB-0561             
1 56710U 23068A   24339.50662054 -.00000026  00000+0 -96341-4 0  9993
2 56710  87.9259  25.8356 0002299  86.4197 273.7200 13.20771257 76321
ONEWEB-0668             
1 56711U 23068B   24339.05505299  .00000070  00000+0  14950-3 0  9993
2 56711  87.9070 340.3603 0001704 110.6773 249.4541 13.16595299 78777
ONEWEB-0676             
1 56712U 23068C   24339.49123175  .00000167  00000+0  40313-3 0  9990
2 56712  87.9042 340.2901 0002078  75.3384 284.7977 13.16607139 78757
ONEWEB-0677             
1 56713U 23068D   24339.11678377  .00000072  00000+0  14513-3 0  9997
2 56713  87.9257  25.8836 0002155 100.2140 259.9237 13.20772842 76573
ONEWEB-0678             
1 56714U 23068E   24338.84566272  .00000062  00000+0  12947-3 0  9995
2 56714  87.9080  10.7257 0001664  83.8988 276.2332 13.15547717 75615
ONEWEB-0679             
1 56715U 23068F   24338.77639953  .00000129  00000+0  30308-3 0  9990
2 56715  87.9075 340.4322 0002273 101.4615 258.6771 13.16592717 77981
ONEWEB-0680             
1 56716U 23068G   24338.79245306  .00000163  00000+0  36281-3 0  9992
2 56716  87.9271 355.6500 0001910 116.3946 243.7384 13.21828221 77067
ONEWEB-0681             
1 56717U 23068H   24339.10548946  .00000024  00000+0  25539-4 0  9996
2 56717  87.9296 355.5747 0002873  88.7112 271.4351 13.21822896 77797
ONEWEB-0682             
1 56718U 23068J   24339.48026099  .00000216  00000+0  53982-3 0  9993
2 56718  87.9079  10.6363 0001980 111.4744 248.6598 13.15549479 76562
ONEWEB-0683             
1 56719U 23068K   24338.66502483 -.00000084  00000+0 -25694-3 0  9993
2 56719  87.9079  10.7698 0001844 105.2412 254.8922 13.15548121 75727
ONEWEB-0684             
1 56720U 23068L   24338.82503641 -.00000083  00000+0 -25571-3 0  9993
2 56720  87.9051  10.8050 0000957  38.2128 321.9070 13.15546610 75579
ONEWEB-0686             
1 56721U 23068M   24339.45008058  .00000106  00000+0  24432-3 0  9995
2 56721  87.9072 340.3345 0001458  98.1871 261.9425 13.16595300 78760
ONEWEB-0694             
1 56722U 23068N   24339.03685020  .00000011  00000+0 -45108-5 0  9991
2 56722  87.9073 340.3371 0001897 104.0548 256.0794 13.16593656 78762
ONEWEB-0696             
1 56723U 23068P   24338.63016489  .00000152  00000+0  36854-3 0  9995
2 56723  87.9078  10.8284 0001723  85.1821 274.9506 13.15547446 75662
ONEWEB-0703             
1 56724U 23068Q   24338.79178731  .00000169  00000+0  41392-3 0  9993
2 56724  87.9078  10.8162 0002259  63.0399 297.0961 13.15548414 75575
ONEWEB-0721             
1 56725U 23068R   24339.07039536  .00000429  00000+0  22390-3 0  9991
2 56725  86.6752 266.1745 0009801  38.0110 322.1764 14.12136948 84234
ONEWEB-0015             
1 61594U 24188A   24339.45840343  .00003508  00000+0  42996-3 0  9998
2 61594  86.5749 151.0792 0007126  71.8061 288.3937 14.82862215  7747
ONEWEB-0687             
1 61595U 24188B   24339.46171944  .00003408  00000+0  41759-3 0  9999
2 61595  86.5766 151.0849 0006297  72.1612 288.0297 14.82875748  7958
ONEWEB-0688             
1 61596U 24188C   24339.46503665  .00001883  00000+0  22958-3 0  9994
2 61596  86.5806 151.0937 0005316  72.9004 287.2801 14.82831266  7720
ONEWEB-0689             
1 61597U 24188D   24338.99285814  .00003589  00000+0  44018-3 0  9991
2 61597  86.5708 151.2712 0003781  85.2039 274.9616 14.82865123  7720
ONEWEB-0690             
1 61598U 24188E   24338.77469710  .00004090  00000+0  50209-3 0  9994
2 61598  86.5763 151.3650 0007855  72.1570 288.0509 14.82838475  9577
ONEWEB-0691             
1 61599U 24188F   24338.51459813  .00003808  00000+0  46716-3 0  9994
2 61599  86.5797 151.5062 0006991  75.4785 284.7213 14.82849279  7801
ONEWEB-0692             
1 61600U 24188G   24338.99588194  .00004250  00000+0  52187-3 0  9995
2 61600  86.5728 151.2900 0004478  92.1475 268.0261 14.82855445  7817
ONEWEB-0693             
1 61601U 24188H   24338.99306730  .00000942  00000+0  11296-3 0  9990
2 61601  86.5691 151.2651 0004067  84.9279 275.2408 14.82887933  7815
ONEWEB-0695             
1 61602U 24188J   24338.99558501  .00004044  00000+0  49645-3 0  9992
2 61602  86.5751 151.2979 0003953  82.5881 277.5791 14.82856350  7844
ONEWEB-0697             
1 61603U 24188K   24339.46991382 -.00005832  00000+0 -72488-3 0  9993
2 61603  86.5706 151.0689 0004953  86.7763 273.4026 14.82868020  7941
ONEWEB-0698             
1 61604U 24188L   24339.52296129  .00003961  00000+0  48621-3 0  9999
2 61604  86.5778 151.0551 0007191  73.2880 286.9131 14.82839481  7717
ONEWEB-0699             
1 61605U 24188M   24339.16667824 -.01078578  00000+0 -40084+0 0  9994
2 61605  86.9600 152.0893 0003712  79.8652 329.0629 14.35229351  7707
ONEWEB-0700             
1 61606U 24188N   24339.58334491 -.01107088  00000+0 -43209+0 0  9993
2 61606  86.9777 151.9384 0003184  68.2111 324.7358 14.32821412  7828
ONEWEB-0701             
1 61607U 24188P   24339.50001157 -.01047037  00000+0 -39579+0 0  9998
2 61607  86.9670 151.9482 0005627  64.2880  16.0788 14.34794344  7949
ONEWEB-0702             
1 61608U 24188Q   24339.46155690  .00003919  00000+0  48050-3 0  9992
2 61608  86.5801 151.0948 0007250  73.2886 286.9132 14.82877079  7750
ONEWEB-0704             
1 61609U 24188R   24339.50001157 -.00913331  00000+0 -35368+0 0  9990
2 61609  86.9762 152.0072 0004319 103.0983 149.6747 14.33127723  7761
ONEWEB-0705             
1 61610U 24188S   24339.50001157 -.01056213  00000+0 -38740+0 0  9997
2 61610  86.9551 151.8929 0006140  86.8680 130.2283 14.36349567  7893
ONEWEB-0706             
1 61611U 24188T   24339.50001157 -.01060858  00000+0 -40641+0 0  9991
2 61611  86.9726 151.9528 0006782  68.4992  20.3205 14.34157058  7734
